      2.10          N: GNSS NAV DATA                        RINEX VERSION / TYPE
fic2rin                                 08/11/2019 00:18:28 PGM / RUN BY / DATE
                                                            END OF HEADER
17 19  8 10 16  0  0.0 1.043961383402e-04 6.934897101019e-12 0.000000000000e+00
    3.400000000000e+01-1.096875000000e+01 4.228390415147e-09-2.469581955544e+00
   -4.991888999939e-07 1.298177882563e-02 2.037733793259e-06 5.153553438187e+03
    5.760000000000e+05 1.918524503708e-07 1.049747039001e+00 8.754432201385e-08
    9.840991870641e-01 3.487812500000e+02-1.705803045681e+00-7.914972547519e-09
    1.467918287546e-10 1.000000000000e+00 2.065000000000e+03 0.000000000000e+00
    2.400000000000e+00 0.000000000000e+00-1.117587089539e-08 3.400000000000e+01
    5.688000000000e+05 4.000000000000e+00
28 19  8 10 16  0  0.0 7.650009356439e-04-9.094947017729e-13 0.000000000000e+00
    2.900000000000e+01 9.975000000000e+01 3.938021177246e-09-1.537073875079e+00
    5.645677447319e-06 1.901456492487e-02 6.990507245064e-06 5.153708667755e+03
    5.760000000000e+05-1.154839992523e-07 3.928462863675e-02 4.917383193970e-07
    9.815188453425e-01 2.588437500000e+02-1.460758771220e+00-7.852469944035e-09
    2.100087477073e-10 1.000000000000e+00 2.065000000000e+03 0.000000000000e+00
    2.400000000000e+00 0.000000000000e+00-1.117587089539e-08 2.900000000000e+01
    5.688000000000e+05 4.000000000000e+00
25 19  8 10 16  0  0.0-6.559304893017e-06-2.160049916711e-12 0.000000000000e+00
    6.300000000000e+01 8.968750000000e+01 4.289464387695e-09 4.753591962757e-02
    4.664063453674e-06 8.384338114411e-03 7.119029760361e-06 5.153679658890e+03
    5.760000000000e+05 1.862645149231e-08-4.874843001921e-02 1.844018697739e-07
    9.696180565069e-01 2.530937500000e+02 9.016187583260e-01-8.083193840326e-09
    1.603638226540e-10 1.000000000000e+00 2.065000000000e+03 0.000000000000e+00
    2.400000000000e+00 0.000000000000e+00 5.587935447693e-09 6.300000000000e+01
    5.688000000000e+05 4.000000000000e+00
31 19  8 10 16  0  0.0 1.828279346228e-05-2.614797267597e-12 0.000000000000e+00
    6.100000000000e+01 3.184375000000e+01 4.306965116671e-09 8.194535226027e-01
    1.767650246620e-06 9.274485288188e-03 9.350478649139e-06 5.153670364380e+03
    5.760000000000e+05 1.341104507446e-07-1.070314034579e+00 1.583248376846e-07
    9.592123304495e-01 1.962500000000e+02 1.483428922198e-02-7.888185717455e-09
   -3.878732993369e-10 1.000000000000e+00 2.065000000000e+03 0.000000000000e+00
    2.400000000000e+00 0.000000000000e+00-1.350417733192e-08 6.100000000000e+01
    5.688000000000e+05 4.000000000000e+00
26 19  8 10 16  0  0.0 1.184875145555e-05 9.094947017729e-12 0.000000000000e+00
    8.200000000000e+01 1.018437500000e+02 4.592334146293e-09-4.815769536017e-01
    5.349516868591e-06 3.794599091634e-03 6.996095180511e-06 5.153655836105e+03
    5.760000000000e+05 9.313225746155e-08-7.867227889048e-02-5.587935447693e-08
    9.508525348247e-01 2.370625000000e+02 1.435094459959e-01-8.230699984549e-09
    1.692927660089e-10 1.000000000000e+00 2.065000000000e+03 0.000000000000e+00
    2.400000000000e+00 0.000000000000e+00 7.450580596924e-09 8.200000000000e+01
    5.688000000000e+05 4.000000000000e+00
29 19  8 10 16  0  0.0 1.285485923290e-04-1.000444171950e-11 0.000000000000e+00
    6.700000000000e+01-1.431250000000e+01 4.288750072227e-09-2.020915155228e+00
   -5.811452865601e-07 1.230392372236e-03 2.961605787277e-06 5.153711809158e+03
    5.760000000000e+05-4.097819328308e-08 1.061004639811e+00-2.048909664154e-08
    9.855954406576e-01 3.375625000000e+02 1.911557378186e+00-8.104266146643e-09
    8.000333245992e-11 1.000000000000e+00 2.065000000000e+03 0.000000000000e+00
    2.400000000000e+00 0.000000000000e+00-9.778887033463e-09 6.700000000000e+01
    5.688000000000e+05 4.000000000000e+00
18 19  8 10 16  0  0.0 7.680011913180e-05 2.955857780762e-12 0.000000000000e+00
    9.500000000000e+01-1.167187500000e+02 4.610192033003e-09 1.485641512647e+00
   -6.299465894699e-06 1.566996413749e-02 7.133930921555e-06 5.153689788818e+03
    5.760000000000e+05-1.993030309677e-07 1.992205215298e+00-3.539025783539e-07
    9.549696880807e-01 2.424375000000e+02 1.418856262384e+00-8.193912737927e-09
   -7.036007363663e-11 1.000000000000e+00 2.065000000000e+03 0.000000000000e+00
    3.400000000000e+00 0.000000000000e+00-5.587935447693e-09 9.500000000000e+01
    5.688000000000e+05 4.000000000000e+00
18 19  8 10 15 59 44.0 7.680151611567e-05 2.955857780762e-12 0.000000000000e+00
    0.000000000000e+00-1.167187500000e+02 4.610192033003e-09 1.483307801358e+00
   -6.299465894699e-06 1.566995738540e-02 7.133930921555e-06 5.153689790726e+03
    5.759840000000e+05-1.993030309677e-07 1.992205364516e+00-3.539025783539e-07
    9.549696910065e-01 2.424375000000e+02 1.418856246292e+00-8.193912737927e-09
   -7.036007363663e-11 1.000000000000e+00 2.065000000000e+03 0.000000000000e+00
    2.400000000000e+00 0.000000000000e+00-5.587935447693e-09 0.000000000000e+00
    5.697000000000e+05 4.000000000000e+00
 4 19  8 10 16  0  0.0 7.903994992375e-05 4.342837200966e-11 0.000000000000e+00
    7.300000000000e+01 6.750000000000e+00 4.840201613825e-09-2.234166030029e+00
    1.378357410431e-07 1.465283241123e-02 1.691281795502e-06 5.153675188065e+03
    5.760000000000e+05 1.564621925354e-07 8.904181352494e-01-1.508742570877e-07
    9.588298446660e-01 3.456250000000e+02 6.753058756689e-01-8.345704774960e-09
    2.485817830005e-10 1.000000000000e+00 2.065000000000e+03 0.000000000000e+00
    2.400000000000e+00 6.300000000000e+01-5.587935447693e-09 7.300000000000e+01
    5.706900000000e+05 4.000000000000e+00
 2 19  8 10 18  0  0.0-2.799415960908e-04-8.412825991400e-12 0.000000000000e+00
    6.900000000000e+01-1.095625000000e+02 4.613406452611e-09 3.060139123123e+00
   -5.567446351051e-06 1.897088764235e-02 6.191432476044e-06 5.153766536713e+03
    5.832000000000e+05 3.222376108170e-07 1.978598124165e+00-1.695007085800e-07
    9.555122726929e-01 2.540937500000e+02-1.724515093319e+00-7.835326372794e-09
   -9.107522222000e-11 1.000000000000e+00 2.065000000000e+03 0.000000000000e+00
    2.400000000000e+00 0.000000000000e+00-2.048909664154e-08 6.900000000000e+01
    5.823900000000e+05 4.000000000000e+00
 5 19  8 10 18  0  0.0-5.234032869339e-07-2.273736754432e-13 0.000000000000e+00
    9.800000000000e+01-1.890625000000e+01 4.766269962847e-09-5.528762453320e-01
   -9.890645742416e-07 5.822234670632e-03 9.085983037949e-06 5.153744129181e+03
    5.832000000000e+05 1.303851604462e-08 3.062943545859e+00 6.519258022308e-08
    9.507429359280e-01 1.979375000000e+02 7.541038689616e-01-8.084622471263e-09
    2.585821995580e-10 1.000000000000e+00 2.065000000000e+03 0.000000000000e+00
    2.400000000000e+00 0.000000000000e+00-1.117587089539e-08 9.800000000000e+01
    5.823900000000e+05 4.000000000000e+00
 7 19  8 10 18  0  0.0-8.243555203080e-05-7.844391802792e-12 0.000000000000e+00
    9.800000000000e+01 2.362500000000e+01 4.485543983769e-09 2.174228320400e+00
    1.065433025360e-06 1.311271963641e-02 1.020915806293e-05 5.153739137650e+03
    5.832000000000e+05-2.402812242508e-07-1.084734547662e+00-2.123415470123e-07
    9.546771278715e-01 1.797187500000e+02-2.439032164988e+00-7.858184467782e-09
   -4.689481049995e-10 1.000000000000e+00 2.065000000000e+03 0.000000000000e+00
    2.400000000000e+00 0.000000000000e+00-1.117587089539e-08 9.800000000000e+01
    5.823900000000e+05 4.000000000000e+00
 6 19  8 10 18  0  0.0-2.080062404275e-05-1.170974428533e-11 0.000000000000e+00
    9.600000000000e+01-1.024687500000e+02 4.228390415147e-09 3.076305002806e+00
   -5.140900611877e-06 1.380268833600e-03 7.402151823044e-06 5.153637437820e+03
    5.832000000000e+05 4.470348358154e-08 2.040621930106e+00 5.960464477539e-08
    9.760782690978e-01 2.455312500000e+02-1.102899580972e+00-7.889971506126e-09
   -4.107313943255e-11 1.000000000000e+00 2.065000000000e+03 0.000000000000e+00
    2.400000000000e+00 0.000000000000e+00 4.190951585770e-09 9.600000000000e+01
    5.823900000000e+05 4.000000000000e+00
19 19  8 10 18  0  0.0-2.826577983797e-04 5.002220859751e-12 0.000000000000e+00
    9.000000000000e+00-1.984375000000e+01 4.333037631267e-09 1.399226259984e+00
   -1.205131411552e-06 9.562873980030e-03 2.507120370865e-06 5.153642202377e+03
    5.832000000000e+05-8.381903171539e-08 1.095800596905e+00-1.601874828339e-07
    9.819828083484e-01 3.441875000000e+02 1.476129715848e+00-8.213556413307e-09
    4.678766317969e-11 1.000000000000e+00 2.065000000000e+03 0.000000000000e+00
    2.400000000000e+00 0.000000000000e+00-1.536682248116e-08 9.000000000000e+00
    5.823900000000e+05 4.000000000000e+00
12 19  8 10 18  0  0.0 2.153785899282e-04-3.751665644813e-12 0.000000000000e+00
    8.000000000000e+00 9.050000000000e+01 3.859446475723e-09 1.465480902545e+00
    4.643574357033e-06 7.515548146330e-03 6.996095180511e-06 5.153603118896e+03
    5.832000000000e+05-1.750886440277e-07 1.641336007090e-02-2.048909664154e-08
    9.822297971965e-01 2.535000000000e+02 1.104731389937e+00-7.888185717455e-09
    1.614352958566e-10 1.000000000000e+00 2.065000000000e+03 0.000000000000e+00
    2.400000000000e+00 0.000000000000e+00-1.257285475731e-08 8.000000000000e+00
    5.823900000000e+05 4.000000000000e+00
 9 19  8 10 18  0  0.0-3.443565219641e-06-8.867573342286e-12 0.000000000000e+00
    4.500000000000e+01 3.781250000000e+00 5.051638992469e-09-8.904271921752e-01
    1.434236764908e-07 1.274873153307e-03 5.949288606644e-06 5.153612415314e+03
    5.832000000000e+05-1.862645149231e-09-2.160731473310e+00 1.862645149231e-08
    9.523858543736e-01 2.584687500000e+02 1.700671980477e+00-8.219628094789e-09
   -9.750406143553e-11 1.000000000000e+00 2.065000000000e+03 0.000000000000e+00
    2.400000000000e+00 0.000000000000e+00 1.396983861923e-09 4.500000000000e+01
    5.823900000000e+05 4.000000000000e+00
